{
    "links": {
        "self": "http://www.neowsapp.com/rest/v1/neo/3693237?api_key=iIulBulltgU6a56xZRHN4H3l9WmuAYTsLGpBGhQ2"
    },
    "id": "3693237",
    "neo_reference_id": "3693237",
    "name": "(2014 TM35)",
    "designation": "2014 TM35",
    "nasa_jpl_url": "http://ssd.jpl.nasa.gov/sbdb.cgi?sstr=3693237",
    "absolute_magnitude_h": 23.7,
    "estimated_diameter": {
        "kilometers": {
            "estimated_diameter_min": 0.0483676488,
            "estimated_diameter_max": 0.1081533507
        },
        "meters": {
            "estimated_diameter_min": 48.3676488219,
            "estimated_diameter_max": 108.1533506775
        },
        "miles": {
            "estimated_diameter_min": 0.0300542543,
            "estimated_diameter_max": 0.0672033557
        },
        "feet": {
            "estimated_diameter_min": 158.6865169607,
            "estimated_diameter_max": 354.8338390368
        }
    },
    "is_potentially_hazardous_asteroid": false,
    "close_approach_data": [
        {
            "close_approach_date": "2014-10-08",
            "close_approach_date_full": "2014-Oct-08 19:48",
            "epoch_date_close_approach": 1412797680000,
            "relative_velocity": {
                "kilometers_per_second": "17.5535682164",
                "kilometers_per_hour": "63192.8455788683",
                "miles_per_hour": "39265.5767431585"
            },
            "miss_distance": {
                "astronomical": "0.0446348879",
                "lunar": "17.3629713931",
                "kilometers": "6677284.157528773",
                "miles": "4149071.9804641474"
            },
            "orbiting_body": "Earth"
        }
    ],
    "orbital_data": {
        "orbit_id": "11",
        "orbit_determination_date": "2017-04-06 08:38:11",
        "first_observation_date": "2014-10-13",
        "last_observation_date": "2014-10-26",
        "data_arc_in_days": 13,
        "observations_used": 44,
        "orbit_uncertainty": "8",
        "minimum_orbit_intersection": ".015639",
        "jupiter_tisserand_invariant": "3.650",
        "epoch_osculation": "2456949.5",
        "eccentricity": ".6118003896882378",
        "semi_major_axis": "1.936725470911698",
        "inclination": "3.219245385095671",
        "ascending_node_longitude": "215.3452847793093",
        "orbital_period": "984.465550014073",
        "perihelion_distance": ".7518360730887852",
        "perihelion_argument": "87.16163120050362",
        "aphelion_distance": "3.12161486873461",
        "perihelion_time": "2456894.049835156878",
        "mean_anomaly": "20.27705219673615",
        "mean_motion": ".3656806477330302",
        "equinox": "J2000",
        "orbit_class": {
            "orbit_class_type": "APO",
            "orbit_class_description": "Near-Earth asteroid orbits which cross the Earth’s orbit similar to that of 1862 Apollo",
            "orbit_class_range": "a (semi-major axis) > 1.0 AU; q (perihelion) < 1.017 AU"
        }
    },
    "is_sentry_object": false
}